[{"OBJECT_NAME":"STARLINK-5883","OBJECT_ID":"2023-037AU","EPOCH":"2026-03-09T22:35:03.083424","MEAN_MOTION":14.98329575,"ECCENTRICITY":0.00019122,"INCLINATION":69.9983,"RA_OF_ASC_NODE":263.7076,"ARG_OF_PERICENTER":275.3776,"MEAN_ANOMALY":84.7165,"EPHEMERIS_TYPE":0,"CLASSIFICATION_TYPE":"U","NORAD_CAT_ID":55956,"ELEMENT_SET_NO":999,"REV_AT_EPOCH":16451,"BSTAR":4.036548e-6,"MEAN_MOTION_DOT":-4.5e-7,"MEAN_MOTION_DDOT":0},{"OBJECT_NAME":"ATLAS 28E DEB","OBJECT_ID":"1990-031F","EPOCH":"2026-03-09T23:20:22.354944","MEAN_MOTION":14.8907054,"ECCENTRICITY":0.00492653,"INCLINATION":89.9045,"RA_OF_ASC_NODE":245.9973,"ARG_OF_PERICENTER":224.0293,"MEAN_ANOMALY":135.7008,"EPHEMERIS_TYPE":0,"CLASSIFICATION_TYPE":"U","NORAD_CAT_ID":20565,"ELEMENT_SET_NO":999,"REV_AT_EPOCH":36885,"BSTAR":0.00032450895,"MEAN_MOTION_DOT":3.143e-5,"MEAN_MOTION_DDOT":0}]
